{
"type": "FeatureCollection",
"name": "utd_parking",
"crs": { "type": "name", "properties": { "name": "urn:ogc:def:crs:OGC:1.3:CRS84" } },
"features": [
{ "type": "Feature", "properties": { "element": "node", "id": 9181754674, "amenity": "parking", "parking": "surface", "access": "private", "capacity": "2", "surface": "concrete", "fee": null, "name": null, "operator": null, "operator:type": null, "supervised": null, "building": null, "building:levels": null, "height": null, "park_ride": null, "short_name": null, "addr:city": null, "addr:postcode": null, "addr:state": null, "addr:street": null, "addr:housenumber": null, "capacity:disabled": null, "maxstay": null, "orientation": null, "note": null }, "geometry": { "type": "Point", "coordinates": [ -96.7491009, 32.989266 ] } },
{ "type": "Feature", "properties": { "element": "way", "id": 134921629, "amenity": "parking", "parking": "surface", "access": "permit", "capacity": null, "surface": "concrete", "fee": "no", "name": "Lot J", "operator": "University of Texas at Dallas", "operator:type": "university", "supervised": "yes", "building": null, "building:levels": null, "height": null, "park_ride": null, "short_name": null, "addr:city": null, "addr:postcode": null, "addr:state": null, "addr:street": null, "addr:housenumber": null, "capacity:disabled": null, "maxstay": null, "orientation": null, "note": null }, "geometry": { "type": "Polygon", "coordinates": [ [ [ -96.7513344, 32.9854724 ], [ -96.7513468, 32.9841843 ], [ -96.7512834, 32.984159 ], [ -96.7511343, 32.9841547 ], [ -96.7510769, 32.9841528 ], [ -96.750939, 32.984132 ], [ -96.7508781, 32.9841317 ], [ -96.7508762, 32.9840129 ], [ -96.7508796, 32.9836367 ], [ -96.7500109, 32.9836328 ], [ -96.749755, 32.9836316 ], [ -96.7483607, 32.9836222 ], [ -96.7483591, 32.9837043 ], [ -96.7483578, 32.9837884 ], [ -96.7500304, 32.9837985 ], [ -96.7500291, 32.9839471 ], [ -96.7500916, 32.983947 ], [ -96.7500894, 32.9840934 ], [ -96.7500818, 32.9847938 ], [ -96.7502178, 32.9847954 ], [ -96.7505209, 32.9847979 ], [ -96.7506145, 32.9847991 ], [ -96.7506797, 32.9847998 ], [ -96.7507188, 32.9848003 ], [ -96.7507372, 32.9848008 ], [ -96.7507338, 32.9854901 ], [ -96.7508121, 32.9854896 ], [ -96.7512693, 32.9854918 ], [ -96.7512708, 32.9854719 ], [ -96.7513344, 32.9854724 ] ] ] } },
{ "type": "Feature", "properties": { "element": "way", "id": 134921640, "amenity": "parking", "parking": "surface", "access": "permit", "capacity": null, "surface": "asphalt", "fee": "no", "name": "Lot M East", "operator": "University of Texas at Dallas", "operator:type": "university", "supervised": "yes", "building": null, "building:levels": null, "height": null, "park_ride": null, "short_name": null, "addr:city": null, "addr:postcode": null, "addr:state": null, "addr:street": null, "addr:housenumber": null, "capacity:disabled": null, "maxstay": null, "orientation": null, "note": null }, "geometry": { "type": "Polygon", "coordinates": [ [ [ -96.7464982, 32.9841553 ], [ -96.7466889, 32.9841297 ], [ -96.7467052, 32.983871 ], [ -96.7466915, 32.9837939 ], [ -96.7466415, 32.9837034 ], [ -96.746624, 32.9836593 ], [ -96.7466252, 32.983622 ], [ -96.7465646, 32.9836202 ], [ -96.7465685, 32.9834696 ], [ -96.7459756, 32.9834428 ], [ -96.7459727, 32.9834841 ], [ -96.7459312, 32.984088 ], [ -96.7460569, 32.9841366 ], [ -96.7464982, 32.9841553 ] ] ] } },
{ "type": "Feature", "properties": { "element": "way", "id": 134921833, "amenity": "parking", "parking": "multi-storey", "access": "permit", "capacity": "1150", "surface": "concrete", "fee": "no", "name": "Parking Structure 4", "operator": "University of Texas at Dallas", "operator:type": "university", "supervised": "yes", "building": "garage", "building:levels": "4", "height": "17.4", "park_ride": "no", "short_name": "PS4", "addr:city": null, "addr:postcode": null, "addr:state": null, "addr:street": null, "addr:housenumber": null, "capacity:disabled": null, "maxstay": null, "orientation": null, "note": null }, "geometry": { "type": "Polygon", "coordinates": [ [ [ -96.7524641, 32.9864725 ], [ -96.7524643, 32.9864461 ], [ -96.7524678, 32.9858944 ], [ -96.7524197, 32.9858942 ], [ -96.7524204, 32.9857776 ], [ -96.7525338, 32.9857781 ], [ -96.7525337, 32.9857901 ], [ -96.7525718, 32.9857902 ], [ -96.753588, 32.9857946 ], [ -96.7535865, 32.9860363 ], [ -96.7535855, 32.9862015 ], [ -96.7535845, 32.9863684 ], [ -96.7535843, 32.9863995 ], [ -96.7535398, 32.9863993 ], [ -96.7535396, 32.9864435 ], [ -96.7525925, 32.9864393 ], [ -96.7525923, 32.9864731 ], [ -96.7524641, 32.9864725 ] ] ] } },
{ "type": "Feature", "properties": { "element": "way", "id": 134921834, "amenity": "parking", "parking": "surface", "access": "permit", "capacity": null, "surface": "concrete", "fee": "no", "name": "Lot H", "operator": "University of Texas at Dallas", "operator:type": "university", "supervised": "yes", "building": null, "building:levels": null, "height": null, "park_ride": null, "short_name": null, "addr:city": null, "addr:postcode": null, "addr:state": null, "addr:street": null, "addr:housenumber": null, "capacity:disabled": null, "maxstay": null, "orientation": null, "note": null }, "geometry": { "type": "Polygon", "coordinates": [ [ [ -96.7535948, 32.988447 ], [ -96.7535955, 32.9884 ], [ -96.7536373, 32.9884005 ], [ -96.7536368, 32.988367 ], [ -96.7536364, 32.9883348 ], [ -96.7536264, 32.9883318 ], [ -96.7536214, 32.9883265 ], [ -96.7536215, 32.9883018 ], [ -96.7536218, 32.9882337 ], [ -96.7536223, 32.9881477 ], [ -96.7536249, 32.9875898 ], [ -96.7536251, 32.987548 ], [ -96.7536254, 32.9874976 ], [ -96.7536277, 32.9870165 ], [ -96.7535426, 32.9870153 ], [ -96.7535429, 32.9869647 ], [ -96.7523696, 32.986958 ], [ -96.7522729, 32.9870425 ], [ -96.7522603, 32.9882945 ], [ -96.7523063, 32.9882942 ], [ -96.7523116, 32.988304 ], [ -96.7523537, 32.9883036 ], [ -96.7523914, 32.9883043 ], [ -96.752392, 32.9883147 ], [ -96.7523981, 32.9883244 ], [ -96.7524095, 32.9883286 ], [ -96.7524232, 32.9883308 ], [ -96.7524227, 32.9883609 ], [ -96.7524227, 32.9883916 ], [ -96.7524241, 32.9884404 ], [ -96.7535948, 32.988447 ] ] ] } },
{ "type": "Feature", "properties": { "element": "way", "id": 221317490, "amenity": "parking", "parking": "surface", "access": "permit", "capacity": null, "surface": "concrete", "fee": "no", "name": "Lot N", "operator": "University of Texas at Dallas", "operator:type": "university", "supervised": "yes", "building": null, "building:levels": null, "height": null, "park_ride": null, "short_name": null, "addr:city": null, "addr:postcode": null, "addr:state": null, "addr:street": null, "addr:housenumber": null, "capacity:disabled": null, "maxstay": null, "orientation": null, "note": null }, "geometry": { "type": "Polygon", "coordinates": [ [ [ -96.7478465, 32.9917058 ], [ -96.7479109, 32.9917039 ], [ -96.7479084, 32.9920322 ], [ -96.7479916, 32.9920324 ], [ -96.7480476, 32.9920332 ], [ -96.7480443, 32.9926265 ], [ -96.7488104, 32.992627 ], [ -96.7488121, 32.992801 ], [ -96.7478613, 32.992796 ], [ -96.747843, 32.9925563 ], [ -96.7478465, 32.9917058 ] ] ] } },
{ "type": "Feature", "properties": { "element": "way", "id": 258039508, "amenity": "parking", "parking": "surface", "access": "permit", "capacity": null, "surface": "asphalt", "fee": "no", "name": "Lot A", "operator": "University of Texas at Dallas", "operator:type": "university", "supervised": "yes", "building": null, "building:levels": null, "height": null, "park_ride": null, "short_name": null, "addr:city": null, "addr:postcode": null, "addr:state": null, "addr:street": null, "addr:housenumber": null, "capacity:disabled": null, "maxstay": null, "orientation": null, "note": null }, "geometry": { "type": "Polygon", "coordinates": [ [ [ -96.7459677, 32.9900261 ], [ -96.7459488, 32.9900452 ], [ -96.7459427, 32.9900622 ], [ -96.7459432, 32.9900809 ], [ -96.7459562, 32.9901042 ], [ -96.7459653, 32.9901016 ], [ -96.7459949, 32.9900526 ], [ -96.7462856, 32.9904128 ], [ -96.7463079, 32.9904524 ], [ -96.7463185, 32.9904934 ], [ -96.746319, 32.9905304 ], [ -96.7463059, 32.9905717 ], [ -96.746291, 32.9906001 ], [ -96.7454273, 32.9916248 ], [ -96.7452176, 32.9918736 ], [ -96.7451975, 32.991865 ], [ -96.7451468, 32.9918756 ], [ -96.7451014, 32.9918738 ], [ -96.7450575, 32.991861 ], [ -96.7450216, 32.9918378 ], [ -96.7448881, 32.9916783 ], [ -96.7448591, 32.9916621 ], [ -96.7448277, 32.9916606 ], [ -96.7447989, 32.9916681 ], [ -96.7447144, 32.9915702 ], [ -96.7447262, 32.9915492 ], [ -96.7447326, 32.9915176 ], [ -96.7447254, 32.9914707 ], [ -96.7447124, 32.9914173 ], [ -96.7446925, 32.9913618 ], [ -96.7446427, 32.9912635 ], [ -96.7445647, 32.9911514 ], [ -96.7442454, 32.9908657 ], [ -96.7441451, 32.9905943 ], [ -96.7442107, 32.9903128 ], [ -96.7454325, 32.9895979 ], [ -96.7454615, 32.9895858 ], [ -96.7454881, 32.9895811 ], [ -96.7455155, 32.9895822 ], [ -96.7455417, 32.9895863 ], [ -96.7455699, 32.9895938 ], [ -96.7455968, 32.9896044 ], [ -96.7456272, 32.9896208 ], [ -96.7456601, 32.9896476 ], [ -96.7458557, 32.9898844 ], [ -96.7458334, 32.9899189 ], [ -96.7458289, 32.9899334 ], [ -96.7458342, 32.9899447 ], [ -96.7458457, 32.989955 ], [ -96.7458646, 32.9899617 ], [ -96.7458787, 32.9899626 ], [ -96.7459088, 32.9899588 ], [ -96.7459677, 32.9900261 ] ] ] } },
{ "type": "Feature", "properties": { "element": "way", "id": 258039509, "amenity": "parking", "parking": "surface", "access": "permit", "capacity": null, "surface": "asphalt", "fee": "no", "name": "Lot B", "operator": "University of Texas at Dallas", "operator:type": "university", "supervised": "yes", "building": null, "building:levels": null, "height": null, "park_ride": null, "short_name": null, "addr:city": null, "addr:postcode": null, "addr:state": null, "addr:street": null, "addr:housenumber": null, "capacity:disabled": null, "maxstay": null, "orientation": null, "note": null }, "geometry": { "type": "Polygon", "coordinates": [ [ [ -96.7453429, 32.9890697 ], [ -96.7452951, 32.9890008 ], [ -96.7452679, 32.9890096 ], [ -96.7452398, 32.9890076 ], [ -96.7452186, 32.9889962 ], [ -96.7452106, 32.9889834 ], [ -96.7452394, 32.9889331 ], [ -96.7450694, 32.9887584 ], [ -96.7450277, 32.9887256 ], [ -96.744991, 32.9887146 ], [ -96.7449557, 32.9887238 ], [ -96.7446747, 32.9889075 ], [ -96.7445259, 32.9889942 ], [ -96.7444029, 32.9890454 ], [ -96.744282, 32.9890812 ], [ -96.744153, 32.9891049 ], [ -96.7439545, 32.9891242 ], [ -96.7438813, 32.9891401 ], [ -96.7438048, 32.9891782 ], [ -96.7437468, 32.9892527 ], [ -96.7437358, 32.989339 ], [ -96.7437637, 32.9895129 ], [ -96.7437698, 32.9896398 ], [ -96.7437511, 32.9897818 ], [ -96.7437427, 32.9898767 ], [ -96.7437402, 32.989966 ], [ -96.7437643, 32.9900927 ], [ -96.7438709, 32.9901312 ], [ -96.7442883, 32.9901983 ], [ -96.7451688, 32.9896847 ], [ -96.7451883, 32.9896043 ], [ -96.7453542, 32.989503 ], [ -96.7453884, 32.9894826 ], [ -96.7454139, 32.9894593 ], [ -96.7454241, 32.9894341 ], [ -96.7454884, 32.989422 ], [ -96.7454898, 32.9893878 ], [ -96.745483, 32.9893525 ], [ -96.745421, 32.9892066 ], [ -96.7453582, 32.9890866 ], [ -96.7453283, 32.9891251 ], [ -96.7453195, 32.9891284 ], [ -96.7453106, 32.9891178 ], [ -96.7453111, 32.989102 ], [ -96.7453195, 32.9890886 ], [ -96.7453429, 32.9890697 ] ] ] } },
{ "type": "Feature", "properties": { "element": "way", "id": 258039510, "amenity": "parking", "parking": "surface", "access": "permit", "capacity": null, "surface": "asphalt", "fee": "no", "name": "Lot C", "operator": "University of Texas at Dallas", "operator:type": "university", "supervised": "yes", "building": null, "building:levels": null, "height": null, "park_ride": null, "short_name": null, "addr:city": null, "addr:postcode": null, "addr:state": null, "addr:street": null, "addr:housenumber": null, "capacity:disabled": null, "maxstay": null, "orientation": null, "note": null }, "geometry": { "type": "Polygon", "coordinates": [ [ [ -96.7442507, 32.9879141 ], [ -96.7442257, 32.9879302 ], [ -96.7442139, 32.9879505 ], [ -96.7442163, 32.9879716 ], [ -96.7442271, 32.9879838 ], [ -96.7442401, 32.9879823 ], [ -96.7442599, 32.9879445 ], [ -96.7442716, 32.9879342 ], [ -96.7445419, 32.988212 ], [ -96.744554, 32.9882344 ], [ -96.7445669, 32.9882596 ], [ -96.7445758, 32.9882912 ], [ -96.7445792, 32.988324 ], [ -96.7445757, 32.9883551 ], [ -96.7445649, 32.9883786 ], [ -96.7445507, 32.988401 ], [ -96.744504, 32.9884404 ], [ -96.7443712, 32.9885096 ], [ -96.7442398, 32.9885636 ], [ -96.74411, 32.9886003 ], [ -96.7439747, 32.9886281 ], [ -96.7438894, 32.9886287 ], [ -96.7438236, 32.9886142 ], [ -96.7437498, 32.9885665 ], [ -96.7437178, 32.9885214 ], [ -96.7437036, 32.9884824 ], [ -96.7436959, 32.9884464 ], [ -96.7436972, 32.9884144 ], [ -96.743774, 32.9882119 ], [ -96.7438154, 32.988056 ], [ -96.74382, 32.9879604 ], [ -96.7438108, 32.9878394 ], [ -96.7437854, 32.9876924 ], [ -96.7437854, 32.9875969 ], [ -96.7437984, 32.9875024 ], [ -96.7438661, 32.9875145 ], [ -96.7439741, 32.9875626 ], [ -96.7440178, 32.9876336 ], [ -96.7440707, 32.9877115 ], [ -96.7441367, 32.9877955 ], [ -96.7441183, 32.9878656 ], [ -96.7441217, 32.9878717 ], [ -96.7441369, 32.9878733 ], [ -96.7441582, 32.9878708 ], [ -96.7441911, 32.987856 ], [ -96.7442507, 32.9879141 ] ] ] } },
{ "type": "Feature", "properties": { "element": "way", "id": 258039511, "amenity": "parking", "parking": "surface", "access": "permit", "capacity": null, "surface": "asphalt", "fee": "no", "name": "Lot D", "operator": "University of Texas at Dallas", "operator:type": "university", "supervised": "yes", "building": null, "building:levels": null, "height": null, "park_ride": null, "short_name": null, "addr:city": null, "addr:postcode": null, "addr:state": null, "addr:street": null, "addr:housenumber": null, "capacity:disabled": null, "maxstay": null, "orientation": null, "note": null }, "geometry": { "type": "Polygon", "coordinates": [ [ [ -96.7451999, 32.9872484 ], [ -96.7452373, 32.9872349 ], [ -96.745269, 32.9872003 ], [ -96.7452743, 32.9871647 ], [ -96.7452616, 32.9871354 ], [ -96.7452385, 32.9871066 ], [ -96.7452766, 32.9870615 ], [ -96.7443149, 32.9863724 ], [ -96.7442694, 32.9863414 ], [ -96.7442468, 32.9863378 ], [ -96.7442206, 32.9863402 ], [ -96.7441829, 32.9863473 ], [ -96.7441617, 32.9863525 ], [ -96.7441935, 32.9863885 ], [ -96.7441877, 32.986396 ], [ -96.7441588, 32.9864131 ], [ -96.7441351, 32.9864351 ], [ -96.7441205, 32.9864648 ], [ -96.7440865, 32.986615 ], [ -96.744085, 32.9866476 ], [ -96.7440934, 32.986676 ], [ -96.7441192, 32.9867076 ], [ -96.7441544, 32.9867249 ], [ -96.7441548, 32.9867314 ], [ -96.7441162, 32.9867756 ], [ -96.7441485, 32.9868262 ], [ -96.7441982, 32.9868979 ], [ -96.7442272, 32.9869427 ], [ -96.7442231, 32.9869478 ], [ -96.7441793, 32.9869465 ], [ -96.744144, 32.9869508 ], [ -96.744106, 32.9869596 ], [ -96.7440745, 32.9869782 ], [ -96.7440439, 32.9870024 ], [ -96.7440999, 32.9870206 ], [ -96.7441007, 32.9870271 ], [ -96.7440826, 32.9870424 ], [ -96.7440695, 32.9870698 ], [ -96.7440651, 32.987109 ], [ -96.7440768, 32.9871402 ], [ -96.7441491, 32.9872468 ], [ -96.7451803, 32.9872526 ], [ -96.7451999, 32.9872484 ] ] ] } },
{ "type": "Feature", "properties": { "element": "way", "id": 280324652, "amenity": "parking", "parking": "surface", "access": "private", "capacity": null, "surface": "concrete", "fee": "yes", "name": "Lot R", "operator": null, "operator:type": null, "supervised": null, "building": null, "building:levels": null, "height": null, "park_ride": null, "short_name": null, "addr:city": null, "addr:postcode": null, "addr:state": null, "addr:street": null, "addr:housenumber": null, "capacity:disabled": null, "maxstay": null, "orientation": null, "note": null }, "geometry": { "type": "Polygon", "coordinates": [ [ [ -96.7483052, 32.9904134 ], [ -96.7480746, 32.9903323 ], [ -96.7478474, 32.9901973 ], [ -96.7477117, 32.9900655 ], [ -96.7478714, 32.989953 ], [ -96.748021, 32.9900804 ], [ -96.7480992, 32.9901226 ], [ -96.7481062, 32.9901264 ], [ -96.7481509, 32.9901505 ], [ -96.7482215, 32.9901885 ], [ -96.7483809, 32.9902426 ], [ -96.7483052, 32.9904134 ] ] ] } },
{ "type": "Feature", "properties": { "element": "way", "id": 280324667, "amenity": "parking", "parking": "surface", "access": "permit", "capacity": null, "surface": "asphalt", "fee": "no", "name": "Lot P", "operator": "University of Texas at Dallas", "operator:type": "university", "supervised": "yes", "building": null, "building:levels": null, "height": null, "park_ride": null, "short_name": null, "addr:city": null, "addr:postcode": null, "addr:state": null, "addr:street": null, "addr:housenumber": null, "capacity:disabled": null, "maxstay": null, "orientation": null, "note": null }, "geometry": { "type": "Polygon", "coordinates": [ [ [ -96.7498181, 32.9911073 ], [ -96.7498152, 32.9910042 ], [ -96.7498159, 32.9909702 ], [ -96.7498206, 32.9907631 ], [ -96.7498593, 32.99073 ], [ -96.7502149, 32.9907325 ], [ -96.7504478, 32.9907675 ], [ -96.750855, 32.990778 ], [ -96.7508503, 32.9911178 ], [ -96.7507012, 32.9911154 ], [ -96.7506077, 32.9911145 ], [ -96.75013, 32.9911098 ], [ -96.7498181, 32.9911073 ] ] ] } },
{ "type": "Feature", "properties": { "element": "way", "id": 297556496, "amenity": "parking", "parking": "surface", "access": "permit", "capacity": null, "surface": "asphalt", "fee": "no", "name": "Lot U", "operator": "University of Texas at Dallas", "operator:type": "university", "supervised": "yes", "building": null, "building:levels": null, "height": null, "park_ride": null, "short_name": null, "addr:city": null, "addr:postcode": null, "addr:state": null, "addr:street": null, "addr:housenumber": null, "capacity:disabled": null, "maxstay": null, "orientation": null, "note": null }, "geometry": { "type": "Polygon", "coordinates": [ [ [ -96.7512186, 32.9821562 ], [ -96.7512795, 32.9821558 ], [ -96.7512728, 32.9813248 ], [ -96.7512577, 32.979535 ], [ -96.751196, 32.9794899 ], [ -96.750728, 32.9794891 ], [ -96.7506676, 32.9795386 ], [ -96.7506632, 32.9804255 ], [ -96.7500967, 32.9804271 ], [ -96.750097, 32.9804938 ], [ -96.7493017, 32.9804961 ], [ -96.7492996, 32.9810298 ], [ -96.7496933, 32.9810315 ], [ -96.7496957, 32.981237 ], [ -96.7497714, 32.9812872 ], [ -96.7501014, 32.9812839 ], [ -96.7501759, 32.9813568 ], [ -96.7508769, 32.9813493 ], [ -96.7508839, 32.9821702 ], [ -96.7509419, 32.9821705 ], [ -96.7512186, 32.9821562 ] ] ] } },
{ "type": "Feature", "properties": { "element": "way", "id": 373023103, "amenity": "parking", "parking": "surface", "access": "permit", "capacity": null, "surface": "concrete", "fee": "no", "name": "SPN Lot", "operator": "University of Texas at Dallas", "operator:type": "university", "supervised": "yes", "building": null, "building:levels": null, "height": null, "park_ride": null, "short_name": null, "addr:city": null, "addr:postcode": null, "addr:state": null, "addr:street": null, "addr:housenumber": null, "capacity:disabled": null, "maxstay": null, "orientation": null, "note": null }, "geometry": { "type": "Polygon", "coordinates": [ [ [ -96.7515002, 32.9932536 ], [ -96.7514902, 32.9959435 ], [ -96.7516201, 32.9959426 ], [ -96.7516716, 32.9959209 ], [ -96.7518003, 32.995894 ], [ -96.753157, 32.9955912 ], [ -96.7531575, 32.9954733 ], [ -96.7536843, 32.9954751 ], [ -96.7536836, 32.9953029 ], [ -96.7532549, 32.9952999 ], [ -96.7529591, 32.9954092 ], [ -96.752157, 32.9954077 ], [ -96.7519785, 32.9955361 ], [ -96.7520057, 32.9955789 ], [ -96.7520441, 32.9955663 ], [ -96.7520787, 32.99554 ], [ -96.7521498, 32.9956033 ], [ -96.7521818, 32.9955726 ], [ -96.7523037, 32.9955701 ], [ -96.7523175, 32.9955698 ], [ -96.7523183, 32.9956195 ], [ -96.7525174, 32.9956199 ], [ -96.7523323, 32.9956633 ], [ -96.7521886, 32.9956969 ], [ -96.7521762, 32.995654 ], [ -96.75208, 32.9956725 ], [ -96.7520986, 32.9957184 ], [ -96.7519216, 32.9957537 ], [ -96.7519245, 32.9955921 ], [ -96.7516867, 32.9953968 ], [ -96.7516305, 32.9953977 ], [ -96.7516325, 32.9952044 ], [ -96.7518683, 32.9950495 ], [ -96.7518861, 32.9944022 ], [ -96.7519444, 32.9943056 ], [ -96.7519483, 32.9933479 ], [ -96.7516904, 32.9933451 ], [ -96.7516905, 32.9932527 ], [ -96.7515002, 32.9932536 ] ] ] } },
{ "type": "Feature", "properties": { "element": "way", "id": 373023690, "amenity": "parking", "parking": "surface", "access": "permit", "capacity": null, "surface": "concrete", "fee": "no", "name": "SPN Lot", "operator": "University of Texas at Dallas", "operator:type": "university", "supervised": "yes", "building": null, "building:levels": null, "height": null, "park_ride": null, "short_name": null, "addr:city": null, "addr:postcode": null, "addr:state": null, "addr:street": null, "addr:housenumber": null, "capacity:disabled": null, "maxstay": null, "orientation": null, "note": null }, "geometry": { "type": "Polygon", "coordinates": [ [ [ -96.7529306, 32.9941774 ], [ -96.7529341, 32.9933499 ], [ -96.7528838, 32.9933493 ], [ -96.752869, 32.9932972 ], [ -96.7528071, 32.993285 ], [ -96.7526895, 32.9932845 ], [ -96.7526896, 32.9932381 ], [ -96.7523476, 32.9932383 ], [ -96.7522411, 32.9932401 ], [ -96.7522405, 32.9933467 ], [ -96.7523648, 32.9933458 ], [ -96.752365, 32.9937549 ], [ -96.7524131, 32.993755 ], [ -96.7524178, 32.9937854 ], [ -96.7524315, 32.993804 ], [ -96.7524496, 32.9938195 ], [ -96.7524855, 32.9938326 ], [ -96.7525573, 32.9938343 ], [ -96.7525605, 32.9941755 ], [ -96.7529306, 32.9941774 ] ] ] } },
{ "type": "Feature", "properties": { "element": "way", "id": 404975608, "amenity": "parking", "parking": "multi-storey", "access": "permit", "capacity": null, "surface": "concrete", "fee": "yes", "name": "Parking Structure 3", "operator": null, "operator:type": null, "supervised": null, "building": "garage", "building:levels": "3", "height": "14.3", "park_ride": null, "short_name": "PS3", "addr:city": null, "addr:postcode": null, "addr:state": null, "addr:street": null, "addr:housenumber": null, "capacity:disabled": null, "maxstay": null, "orientation": null, "note": null }, "geometry": { "type": "Polygon", "coordinates": [ [ [ -96.7508626, 32.9905784 ], [ -96.7506707, 32.9905742 ], [ -96.7506706, 32.9905452 ], [ -96.7500378, 32.9905364 ], [ -96.7499413, 32.9905347 ], [ -96.7499428, 32.9905656 ], [ -96.749826, 32.9905633 ], [ -96.7498374, 32.9899371 ], [ -96.7499293, 32.9899393 ], [ -96.7499283, 32.9898849 ], [ -96.7507002, 32.989891 ], [ -96.7507003, 32.9899358 ], [ -96.7507696, 32.9899369 ], [ -96.7507671, 32.9900592 ], [ -96.7508548, 32.9900597 ], [ -96.7508469, 32.9901002 ], [ -96.7508434, 32.9901216 ], [ -96.750832, 32.9901903 ], [ -96.7508293, 32.9902063 ], [ -96.7508303, 32.9902271 ], [ -96.7508305, 32.9902306 ], [ -96.7508516, 32.9904429 ], [ -96.7508626, 32.9905784 ] ] ] } },
{ "type": "Feature", "properties": { "element": "way", "id": 404979300, "amenity": "parking", "parking": "surface", "access": "permit", "capacity": null, "surface": "concrete", "fee": "no", "name": "Residence Lot North", "operator": "University of Texas at Dallas", "operator:type": "university", "supervised": "yes", "building": null, "building:levels": null, "height": null, "park_ride": "no", "short_name": null, "addr:city": "Richardson", "addr:postcode": "75080", "addr:state": "TX", "addr:street": "Loop Road", "addr:housenumber": null, "capacity:disabled": null, "maxstay": null, "orientation": null, "note": null }, "geometry": { "type": "Polygon", "coordinates": [ [ [ -96.7530336, 32.9912841 ], [ -96.7530317, 32.9914311 ], [ -96.7530027, 32.9914543 ], [ -96.752977, 32.9914749 ], [ -96.7530867, 32.9915712 ], [ -96.7535969, 32.9915853 ], [ -96.7535937, 32.9917159 ], [ -96.7535212, 32.9917683 ], [ -96.7533008, 32.9917672 ], [ -96.7527434, 32.9917594 ], [ -96.752633, 32.9916568 ], [ -96.7526366, 32.9913778 ], [ -96.7526466, 32.9913062 ], [ -96.7526645, 32.9911787 ], [ -96.752749, 32.9911119 ], [ -96.752953, 32.9912143 ], [ -96.7530336, 32.9912841 ] ] ] } },
{ "type": "Feature", "properties": { "element": "way", "id": 404982366, "amenity": "parking", "parking": "surface", "access": "permit", "capacity": null, "surface": "asphalt", "fee": "no", "name": "Residence Lot North West", "operator": "University of Texas at Dallas", "operator:type": "university", "supervised": "yes", "building": null, "building:levels": null, "height": null, "park_ride": null, "short_name": null, "addr:city": null, "addr:postcode": null, "addr:state": null, "addr:street": null, "addr:housenumber": null, "capacity:disabled": null, "maxstay": null, "orientation": null, "note": null }, "geometry": { "type": "Polygon", "coordinates": [ [ [ -96.7554176, 32.9917744 ], [ -96.755404, 32.9918449 ], [ -96.7553881, 32.991875 ], [ -96.7553543, 32.9919003 ], [ -96.7553231, 32.991911 ], [ -96.7552858, 32.9919142 ], [ -96.7549471, 32.9918924 ], [ -96.7549485, 32.9918158 ], [ -96.7549651, 32.990876 ], [ -96.7551035, 32.990878 ], [ -96.7553458, 32.9908815 ], [ -96.7554091, 32.9909138 ], [ -96.7554354, 32.9909489 ], [ -96.7554176, 32.9917744 ] ] ] } },
{ "type": "Feature", "properties": { "element": "way", "id": 404997026, "amenity": "parking", "parking": "multi-storey", "access": "permit", "capacity": "400", "surface": "concrete", "fee": "no", "name": "Parking Structure 1", "operator": "University of Texas at Dallas", "operator:type": "university", "supervised": "yes", "building": "garage", "building:levels": "3", "height": "15.2", "park_ride": "no", "short_name": "PS1", "addr:city": null, "addr:postcode": null, "addr:state": null, "addr:street": null, "addr:housenumber": null, "capacity:disabled": null, "maxstay": null, "orientation": null, "note": null }, "geometry": { "type": "Polygon", "coordinates": [ [ [ -96.7450104, 32.9857305 ], [ -96.7451337, 32.9857324 ], [ -96.7459128, 32.985743 ], [ -96.7459079, 32.9859966 ], [ -96.745903, 32.9862398 ], [ -96.7450007, 32.9862273 ], [ -96.7450104, 32.9857305 ] ] ] } },
{ "type": "Feature", "properties": { "element": "way", "id": 404998006, "amenity": "parking", "parking": "surface", "access": "permit", "capacity": null, "surface": "asphalt", "fee": "no", "name": "Lot T", "operator": "University of Texas at Dallas", "operator:type": "university", "supervised": "yes", "building": null, "building:levels": null, "height": null, "park_ride": null, "short_name": null, "addr:city": null, "addr:postcode": null, "addr:state": null, "addr:street": null, "addr:housenumber": null, "capacity:disabled": null, "maxstay": null, "orientation": null, "note": null }, "geometry": { "type": "Polygon", "coordinates": [ [ [ -96.7513625, 32.9927217 ], [ -96.7513656, 32.9921219 ], [ -96.751385, 32.9920082 ], [ -96.7513849, 32.99196 ], [ -96.7528992, 32.9919634 ], [ -96.7530883, 32.9919771 ], [ -96.7531694, 32.9920068 ], [ -96.7532453, 32.992056 ], [ -96.753355, 32.9920963 ], [ -96.7546675, 32.9920973 ], [ -96.7547481, 32.9921709 ], [ -96.7547478, 32.9924266 ], [ -96.7547478, 32.9924496 ], [ -96.7547477, 32.9925254 ], [ -96.7547477, 32.9925462 ], [ -96.7547474, 32.9927733 ], [ -96.7546601, 32.9928551 ], [ -96.7540419, 32.9928535 ], [ -96.7539677, 32.9928459 ], [ -96.7539048, 32.9928276 ], [ -96.7538448, 32.9928003 ], [ -96.7537461, 32.9927876 ], [ -96.753301, 32.9927845 ], [ -96.7532009, 32.9927838 ], [ -96.7531402, 32.9928031 ], [ -96.7530761, 32.9928323 ], [ -96.7530082, 32.9928511 ], [ -96.7514502, 32.9928451 ], [ -96.7514496, 32.9927946 ], [ -96.7514202, 32.9927947 ], [ -96.7514189, 32.9927223 ], [ -96.7513625, 32.9927217 ] ] ] } },
{ "type": "Feature", "properties": { "element": "way", "id": 404998009, "amenity": "parking", "parking": "surface", "access": "permit", "capacity": null, "surface": "asphalt", "fee": "no", "name": "Lot T Overflow", "operator": "University of Texas at Dallas", "operator:type": "university", "supervised": "yes", "building": null, "building:levels": null, "height": null, "park_ride": null, "short_name": null, "addr:city": null, "addr:postcode": null, "addr:state": null, "addr:street": null, "addr:housenumber": null, "capacity:disabled": null, "maxstay": null, "orientation": null, "note": null }, "geometry": { "type": "Polygon", "coordinates": [ [ [ -96.7550051, 32.9920344 ], [ -96.7551751, 32.9920213 ], [ -96.7553972, 32.9920107 ], [ -96.7554843, 32.9920028 ], [ -96.755605, 32.9919723 ], [ -96.7556566, 32.991966 ], [ -96.7559017, 32.9919645 ], [ -96.7559051, 32.9916291 ], [ -96.7560311, 32.9916289 ], [ -96.7560663, 32.9916288 ], [ -96.7560555, 32.9926943 ], [ -96.7560446, 32.9927377 ], [ -96.7560222, 32.9927671 ], [ -96.755989, 32.9927874 ], [ -96.7559467, 32.9927956 ], [ -96.7559039, 32.9927944 ], [ -96.7556038, 32.9927434 ], [ -96.7555114, 32.9927328 ], [ -96.7550035, 32.9927214 ], [ -96.7550039, 32.9925676 ], [ -96.7550042, 32.9924168 ], [ -96.7550051, 32.9920344 ] ] ] } },
{ "type": "Feature", "properties": { "element": "way", "id": 470345855, "amenity": "parking", "parking": "multi-storey", "access": "private", "capacity": null, "surface": "concrete", "fee": null, "name": null, "operator": null, "operator:type": null, "supervised": null, "building": "garage", "building:levels": null, "height": "7.3", "park_ride": null, "short_name": null, "addr:city": null, "addr:postcode": null, "addr:state": null, "addr:street": null, "addr:housenumber": null, "capacity:disabled": null, "maxstay": null, "orientation": null, "note": null }, "geometry": { "type": "Polygon", "coordinates": [ [ [ -96.7603419, 32.982162 ], [ -96.7606714, 32.9821631 ], [ -96.7606712, 32.9822062 ], [ -96.7607299, 32.9822064 ], [ -96.7607291, 32.9823872 ], [ -96.7607281, 32.9825908 ], [ -96.7606723, 32.9825906 ], [ -96.7606721, 32.9826451 ], [ -96.7597022, 32.982642 ], [ -96.7597024, 32.9825955 ], [ -96.7596426, 32.9825954 ], [ -96.7596442, 32.9822569 ], [ -96.7596444, 32.982208 ], [ -96.7596581, 32.9822081 ], [ -96.7596583, 32.9821599 ], [ -96.7602046, 32.9821631 ], [ -96.7603419, 32.982162 ] ] ] } },
{ "type": "Feature", "properties": { "element": "way", "id": 470346654, "amenity": "parking", "parking": "multi-storey", "access": null, "capacity": null, "surface": null, "fee": null, "name": null, "operator": null, "operator:type": null, "supervised": null, "building": "parking", "building:levels": null, "height": null, "park_ride": null, "short_name": null, "addr:city": null, "addr:postcode": null, "addr:state": null, "addr:street": "Waterview Parkway", "addr:housenumber": "17655", "capacity:disabled": null, "maxstay": null, "orientation": null, "note": null }, "geometry": { "type": "Polygon", "coordinates": [ [ [ -96.7584478, 32.9874829 ], [ -96.7579538, 32.9874805 ], [ -96.7579539, 32.9874437 ], [ -96.7579553, 32.9874102 ], [ -96.7587888, 32.9874134 ], [ -96.7587751, 32.98906 ], [ -96.7584394, 32.9890569 ], [ -96.7584397, 32.9889972 ], [ -96.7584421, 32.9884022 ], [ -96.7584439, 32.9882107 ], [ -96.7584464, 32.9876205 ], [ -96.7584478, 32.9874829 ] ] ] } },
{ "type": "Feature", "properties": { "element": "way", "id": 470347247, "amenity": "parking", "parking": "multi-storey", "access": "private", "capacity": null, "surface": "concrete", "fee": "no", "name": null, "operator": null, "operator:type": null, "supervised": "yes", "building": "garage", "building:levels": null, "height": "7.6", "park_ride": null, "short_name": null, "addr:city": null, "addr:postcode": null, "addr:state": null, "addr:street": "Lake Park Boulevard", "addr:housenumber": "2100", "capacity:disabled": null, "maxstay": null, "orientation": null, "note": null }, "geometry": { "type": "Polygon", "coordinates": [ [ [ -96.7601939, 32.9802917 ], [ -96.7594536, 32.9802906 ], [ -96.759455, 32.9796409 ], [ -96.7602572, 32.9796421 ], [ -96.7602559, 32.9802553 ], [ -96.7601939, 32.9802917 ] ] ] } },
{ "type": "Feature", "properties": { "element": "way", "id": 510499742, "amenity": "parking", "parking": "multi-storey", "access": "private", "capacity": null, "surface": "concrete", "fee": null, "name": null, "operator": null, "operator:type": null, "supervised": null, "building": "garage", "building:levels": "4", "height": "11.6", "park_ride": null, "short_name": null, "addr:city": null, "addr:postcode": null, "addr:state": null, "addr:street": null, "addr:housenumber": null, "capacity:disabled": null, "maxstay": null, "orientation": null, "note": null }, "geometry": { "type": "Polygon", "coordinates": [ [ [ -96.7504004, 32.9941701 ], [ -96.7504006, 32.9941389 ], [ -96.7504034, 32.9936336 ], [ -96.750771, 32.993635 ], [ -96.7508072, 32.9936351 ], [ -96.7508068, 32.9937015 ], [ -96.7508037, 32.9942627 ], [ -96.7508032, 32.9943537 ], [ -96.7503994, 32.9943521 ], [ -96.7503995, 32.9943306 ], [ -96.7504004, 32.9941701 ] ] ] } },
{ "type": "Feature", "properties": { "element": "way", "id": 510499745, "amenity": "parking", "parking": "surface", "access": "customers", "capacity": null, "surface": "concrete", "fee": "no", "name": null, "operator": null, "operator:type": null, "supervised": null, "building": null, "building:levels": null, "height": null, "park_ride": null, "short_name": null, "addr:city": null, "addr:postcode": null, "addr:state": null, "addr:street": null, "addr:housenumber": null, "capacity:disabled": null, "maxstay": null, "orientation": null, "note": null }, "geometry": { "type": "Polygon", "coordinates": [ [ [ -96.7507326, 32.9933941 ], [ -96.7507327, 32.993227 ], [ -96.749806, 32.9932266 ], [ -96.7498059, 32.9933938 ], [ -96.7507326, 32.9933941 ] ] ] } },
{ "type": "Feature", "properties": { "element": "way", "id": 510499752, "amenity": "parking", "parking": "surface", "access": "private", "capacity": null, "surface": "concrete", "fee": null, "name": null, "operator": null, "operator:type": null, "supervised": null, "building": null, "building:levels": null, "height": null, "park_ride": null, "short_name": null, "addr:city": null, "addr:postcode": null, "addr:state": null, "addr:street": null, "addr:housenumber": null, "capacity:disabled": null, "maxstay": null, "orientation": null, "note": null }, "geometry": { "type": "Polygon", "coordinates": [ [ [ -96.7489773, 32.9943555 ], [ -96.7489882, 32.9937128 ], [ -96.7481048, 32.9937022 ], [ -96.7480939, 32.994345 ], [ -96.7489773, 32.9943555 ] ] ] } },
{ "type": "Feature", "properties": { "element": "way", "id": 514361760, "amenity": "parking", "parking": "surface", "access": "private", "capacity": null, "surface": "concrete", "fee": null, "name": null, "operator": null, "operator:type": null, "supervised": "yes", "building": null, "building:levels": null, "height": null, "park_ride": null, "short_name": null, "addr:city": null, "addr:postcode": null, "addr:state": null, "addr:street": null, "addr:housenumber": null, "capacity:disabled": null, "maxstay": null, "orientation": null, "note": null }, "geometry": { "type": "Polygon", "coordinates": [ [ [ -96.7549873, 32.9809081 ], [ -96.7546719, 32.9810262 ], [ -96.7544461, 32.9811087 ], [ -96.7543662, 32.9809581 ], [ -96.7542006, 32.9809604 ], [ -96.7541987, 32.9810992 ], [ -96.7541351, 32.9810979 ], [ -96.7541362, 32.9811478 ], [ -96.7538667, 32.981147 ], [ -96.7538672, 32.9810984 ], [ -96.7537997, 32.981101 ], [ -96.7538008, 32.9803264 ], [ -96.753864, 32.9803311 ], [ -96.7542812, 32.9801766 ], [ -96.7543669, 32.9801795 ], [ -96.7544198, 32.9801548 ], [ -96.7545367, 32.9803722 ], [ -96.7546774, 32.9803144 ], [ -96.7549873, 32.9809081 ] ] ] } },
{ "type": "Feature", "properties": { "element": "way", "id": 543192243, "amenity": "parking", "parking": "surface", "access": "permit", "capacity": null, "surface": "concrete", "fee": "no", "name": "Lot F", "operator": "University of Texas at Dallas", "operator:type": "university", "supervised": "yes", "building": null, "building:levels": null, "height": null, "park_ride": null, "short_name": null, "addr:city": null, "addr:postcode": null, "addr:state": null, "addr:street": null, "addr:housenumber": null, "capacity:disabled": null, "maxstay": null, "orientation": null, "note": null }, "geometry": { "type": "Polygon", "coordinates": [ [ [ -96.7495103, 32.984112 ], [ -96.7490891, 32.9841089 ], [ -96.7490858, 32.9844262 ], [ -96.749507, 32.9844294 ], [ -96.7495088, 32.9842589 ], [ -96.7495103, 32.984112 ] ] ] } },
{ "type": "Feature", "properties": { "element": "way", "id": 543572367, "amenity": "parking", "parking": "multi-storey", "access": "customers", "capacity": null, "surface": null, "fee": "no", "name": null, "operator": null, "operator:type": null, "supervised": null, "building": "parking", "building:levels": null, "height": null, "park_ride": null, "short_name": null, "addr:city": null, "addr:postcode": null, "addr:state": null, "addr:street": null, "addr:housenumber": null, "capacity:disabled": null, "maxstay": null, "orientation": null, "note": null }, "geometry": { "type": "Polygon", "coordinates": [ [ [ -96.7583485, 32.9903505 ], [ -96.7583527, 32.9907265 ], [ -96.7584478, 32.9907268 ], [ -96.7584474, 32.9907829 ], [ -96.7583836, 32.9907826 ], [ -96.7583834, 32.9908189 ], [ -96.7583833, 32.9908426 ], [ -96.7583831, 32.9908736 ], [ -96.7583812, 32.9914368 ], [ -96.7581916, 32.9914367 ], [ -96.758191, 32.9914805 ], [ -96.7581903, 32.9915263 ], [ -96.7583803, 32.991529 ], [ -96.7583807, 32.9915529 ], [ -96.7587819, 32.9915546 ], [ -96.7587885, 32.9907816 ], [ -96.7585149, 32.9907805 ], [ -96.7585151, 32.9907283 ], [ -96.7587349, 32.990729 ], [ -96.7587388, 32.9903516 ], [ -96.7586395, 32.9903524 ], [ -96.7583485, 32.9903505 ] ] ] } },
{ "type": "Feature", "properties": { "element": "way", "id": 544926292, "amenity": "parking", "parking": "surface", "access": "permit", "capacity": "32", "surface": "asphalt", "fee": "no", "name": "Lot M North", "operator": "University of Texas at Dallas", "operator:type": "university", "supervised": "yes", "building": null, "building:levels": null, "height": null, "park_ride": null, "short_name": null, "addr:city": null, "addr:postcode": null, "addr:state": null, "addr:street": null, "addr:housenumber": null, "capacity:disabled": "8", "maxstay": null, "orientation": null, "note": null }, "geometry": { "type": "Polygon", "coordinates": [ [ [ -96.7457271, 32.9843598 ], [ -96.7457505, 32.9843142 ], [ -96.7457221, 32.9843059 ], [ -96.7457396, 32.9842685 ], [ -96.7458341, 32.9842701 ], [ -96.7459402, 32.9843066 ], [ -96.7460702, 32.9843134 ], [ -96.7460789, 32.9843065 ], [ -96.7460832, 32.9842696 ], [ -96.746476, 32.9842845 ], [ -96.7464675, 32.9844006 ], [ -96.7464637, 32.9844527 ], [ -96.7459431, 32.9844315 ], [ -96.7457271, 32.9843598 ] ] ] } },
{ "type": "Feature", "properties": { "element": "way", "id": 544939747, "amenity": "parking", "parking": "surface", "access": "permit", "capacity": null, "surface": "asphalt", "fee": "no", "name": "Lot S", "operator": "University of Texas at Dallas", "operator:type": "university", "supervised": "yes", "building": null, "building:levels": null, "height": null, "park_ride": null, "short_name": null, "addr:city": null, "addr:postcode": null, "addr:state": null, "addr:street": null, "addr:housenumber": null, "capacity:disabled": null, "maxstay": null, "orientation": null, "note": null }, "geometry": { "type": "Polygon", "coordinates": [ [ [ -96.7474726, 32.9915406 ], [ -96.7474686, 32.9924638 ], [ -96.7471544, 32.9924621 ], [ -96.7471553, 32.9925699 ], [ -96.747096, 32.9925704 ], [ -96.7470912, 32.992787 ], [ -96.7471464, 32.9927913 ], [ -96.7476492, 32.9927938 ], [ -96.7476468, 32.9925805 ], [ -96.7476522, 32.9924681 ], [ -96.7476641, 32.9924302 ], [ -96.7476705, 32.9916631 ], [ -96.7475298, 32.9915399 ], [ -96.7474726, 32.9915406 ] ] ] } },
{ "type": "Feature", "properties": { "element": "way", "id": 545113552, "amenity": "parking", "parking": "surface", "access": "customers", "capacity": null, "surface": null, "fee": "no", "name": null, "operator": null, "operator:type": null, "supervised": null, "building": null, "building:levels": null, "height": null, "park_ride": null, "short_name": null, "addr:city": null, "addr:postcode": null, "addr:state": null, "addr:street": null, "addr:housenumber": null, "capacity:disabled": null, "maxstay": null, "orientation": null, "note": null }, "geometry": { "type": "Polygon", "coordinates": [ [ [ -96.749073, 32.9934007 ], [ -96.7480549, 32.9933956 ], [ -96.7480562, 32.9932217 ], [ -96.7490742, 32.9932268 ], [ -96.749073, 32.9934007 ] ] ] } },
{ "type": "Feature", "properties": { "element": "way", "id": 598197592, "amenity": "parking", "parking": "multi-storey", "access": "private", "capacity": null, "surface": null, "fee": null, "name": null, "operator": null, "operator:type": null, "supervised": null, "building": "parking", "building:levels": "4", "height": "14.3", "park_ride": null, "short_name": null, "addr:city": null, "addr:postcode": null, "addr:state": null, "addr:street": null, "addr:housenumber": null, "capacity:disabled": null, "maxstay": null, "orientation": null, "note": null }, "geometry": { "type": "Polygon", "coordinates": [ [ [ -96.748434, 32.9946646 ], [ -96.7484247, 32.9953605 ], [ -96.7484244, 32.9953807 ], [ -96.7484237, 32.9954378 ], [ -96.7481309, 32.995435 ], [ -96.7480195, 32.995434 ], [ -96.7480196, 32.9954214 ], [ -96.7480035, 32.9954212 ], [ -96.7480034, 32.9954273 ], [ -96.7479495, 32.9954268 ], [ -96.7479503, 32.9953638 ], [ -96.7479184, 32.9953635 ], [ -96.7479189, 32.9953262 ], [ -96.7479271, 32.9953263 ], [ -96.7479275, 32.9952924 ], [ -96.7479187, 32.9952923 ], [ -96.7479192, 32.995257 ], [ -96.7479506, 32.9952573 ], [ -96.747951, 32.9952277 ], [ -96.7479196, 32.9952274 ], [ -96.7479202, 32.9951879 ], [ -96.7479282, 32.995188 ], [ -96.7479286, 32.9951552 ], [ -96.74792, 32.9951551 ], [ -96.7479205, 32.9951162 ], [ -96.7479516, 32.9951165 ], [ -96.7479519, 32.9950905 ], [ -96.7479195, 32.9950902 ], [ -96.74792, 32.9950513 ], [ -96.7479288, 32.9950514 ], [ -96.7479292, 32.9950187 ], [ -96.7479213, 32.9950186 ], [ -96.7479218, 32.9949796 ], [ -96.7479525, 32.9949799 ], [ -96.7479529, 32.9949526 ], [ -96.7479197, 32.9949522 ], [ -96.7479202, 32.9949133 ], [ -96.7479297, 32.9949134 ], [ -96.7479301, 32.9948819 ], [ -96.7479211, 32.9948818 ], [ -96.7479216, 32.9948431 ], [ -96.7479523, 32.9948433 ], [ -96.7479526, 32.9948153 ], [ -96.747921, 32.994815 ], [ -96.7479215, 32.9947762 ], [ -96.7479303, 32.9947762 ], [ -96.7479307, 32.9947453 ], [ -96.7479224, 32.9947452 ], [ -96.7479229, 32.9947065 ], [ -96.7479546, 32.9947068 ], [ -96.7479554, 32.9946418 ], [ -96.7479225, 32.9946414 ], [ -96.7479234, 32.9945737 ], [ -96.7479532, 32.994574 ], [ -96.7479533, 32.9945626 ], [ -96.7479873, 32.9945629 ], [ -96.7479872, 32.9945689 ], [ -96.7480257, 32.9945693 ], [ -96.7480258, 32.9945612 ], [ -96.7481532, 32.9945624 ], [ -96.7481531, 32.9945693 ], [ -96.7481887, 32.9945696 ], [ -96.7481888, 32.9945628 ], [ -96.7482239, 32.9945632 ], [ -96.7482238, 32.9945743 ], [ -96.7482546, 32.9945746 ], [ -96.7482537, 32.9946424 ], [ -96.7482357, 32.9946422 ], [ -96.748235, 32.9946904 ], [ -96.748383, 32.9946917 ], [ -96.7483834, 32.9946641 ], [ -96.748434, 32.9946646 ] ] ] } },
{ "type": "Feature", "properties": { "element": "way", "id": 965242218, "amenity": "parking", "parking": "surface", "access": "private", "capacity": null, "surface": "concrete", "fee": null, "name": null, "operator": null, "operator:type": null, "supervised": null, "building": null, "building:levels": null, "height": null, "park_ride": null, "short_name": null, "addr:city": null, "addr:postcode": null, "addr:state": null, "addr:street": null, "addr:housenumber": null, "capacity:disabled": null, "maxstay": null, "orientation": null, "note": null }, "geometry": { "type": "Polygon", "coordinates": [ [ [ -96.7510248, 32.9952856 ], [ -96.7498682, 32.9952779 ], [ -96.7498686, 32.99485 ], [ -96.7499554, 32.9948498 ], [ -96.7499532, 32.9947862 ], [ -96.750799, 32.9947895 ], [ -96.7508, 32.9948393 ], [ -96.7508534, 32.9948365 ], [ -96.750854, 32.9951169 ], [ -96.7510608, 32.9951172 ], [ -96.7510248, 32.9952856 ] ] ] } },
{ "type": "Feature", "properties": { "element": "way", "id": 965242219, "amenity": "parking", "parking": "surface", "access": "private", "capacity": null, "surface": "concrete", "fee": null, "name": null, "operator": null, "operator:type": null, "supervised": null, "building": null, "building:levels": null, "height": null, "park_ride": null, "short_name": null, "addr:city": null, "addr:postcode": null, "addr:state": null, "addr:street": null, "addr:housenumber": null, "capacity:disabled": null, "maxstay": null, "orientation": null, "note": null }, "geometry": { "type": "Polygon", "coordinates": [ [ [ -96.7476689, 32.9949152 ], [ -96.747533, 32.9949148 ], [ -96.7474148, 32.9949153 ], [ -96.7474158, 32.9951889 ], [ -96.7472577, 32.9951888 ], [ -96.7472594, 32.9952388 ], [ -96.7465201, 32.9952366 ], [ -96.7465208, 32.9950155 ], [ -96.7466914, 32.9950158 ], [ -96.7466931, 32.9949455 ], [ -96.7467759, 32.9947409 ], [ -96.7476526, 32.9947432 ], [ -96.7476524, 32.9947928 ], [ -96.7476694, 32.9947929 ], [ -96.7476692, 32.9948279 ], [ -96.7476689, 32.9949152 ] ] ] } },
{ "type": "Feature", "properties": { "element": "way", "id": 980286918, "amenity": "parking", "parking": "surface", "access": "customers", "capacity": null, "surface": "concrete", "fee": "no", "name": null, "operator": null, "operator:type": null, "supervised": null, "building": null, "building:levels": null, "height": null, "park_ride": null, "short_name": null, "addr:city": null, "addr:postcode": null, "addr:state": null, "addr:street": null, "addr:housenumber": null, "capacity:disabled": null, "maxstay": null, "orientation": null, "note": null }, "geometry": { "type": "Polygon", "coordinates": [ [ [ -96.7476387, 32.9935038 ], [ -96.7475976, 32.9933722 ], [ -96.7473837, 32.9934472 ], [ -96.747179, 32.9935809 ], [ -96.7470292, 32.993731 ], [ -96.7469036, 32.9938941 ], [ -96.7466599, 32.9941778 ], [ -96.7468047, 32.9942277 ], [ -96.7471175, 32.9938371 ], [ -96.7472297, 32.9937278 ], [ -96.7473584, 32.9936204 ], [ -96.7475469, 32.993539 ], [ -96.7476387, 32.9935038 ] ] ] } },
{ "type": "Feature", "properties": { "element": "way", "id": 986763962, "amenity": "parking", "parking": "surface", "access": "permit", "capacity": null, "surface": "asphalt", "fee": "no", "name": "Lot I", "operator": "University of Texas at Dallas", "operator:type": "university", "supervised": "yes", "building": null, "building:levels": null, "height": null, "park_ride": null, "short_name": null, "addr:city": null, "addr:postcode": null, "addr:state": null, "addr:street": null, "addr:housenumber": null, "capacity:disabled": null, "maxstay": null, "orientation": null, "note": null }, "geometry": { "type": "Polygon", "coordinates": [ [ [ -96.753546, 32.9867678 ], [ -96.752367, 32.9867644 ], [ -96.7522718, 32.9866902 ], [ -96.7522727, 32.9865087 ], [ -96.7523305, 32.9865087 ], [ -96.7524519, 32.9864955 ], [ -96.7529002, 32.9864992 ], [ -96.7530251, 32.9864855 ], [ -96.7536275, 32.9864912 ], [ -96.7536247, 32.9866543 ], [ -96.753546, 32.9867678 ] ] ] } },
{ "type": "Feature", "properties": { "element": "way", "id": 986768444, "amenity": "parking", "parking": "surface", "access": "permit", "capacity": null, "surface": "concrete", "fee": "no", "name": "Lot V", "operator": "University of Texas at Dallas", "operator:type": "university", "supervised": "yes", "building": null, "building:levels": null, "height": null, "park_ride": null, "short_name": null, "addr:city": null, "addr:postcode": null, "addr:state": null, "addr:street": null, "addr:housenumber": null, "capacity:disabled": null, "maxstay": null, "orientation": null, "note": null }, "geometry": { "type": "Polygon", "coordinates": [ [ [ -96.758377, 32.9857441 ], [ -96.7583666, 32.9866423 ], [ -96.758391, 32.9866797 ], [ -96.7587392, 32.9866826 ], [ -96.7587401, 32.9867936 ], [ -96.7584111, 32.9867922 ], [ -96.7583041, 32.9867832 ], [ -96.7582238, 32.9867578 ], [ -96.7568168, 32.9867499 ], [ -96.7568156, 32.986646 ], [ -96.7575911, 32.9866498 ], [ -96.7576165, 32.9866433 ], [ -96.7576327, 32.9866312 ], [ -96.7576432, 32.9866101 ], [ -96.7576452, 32.986482 ], [ -96.75759, 32.9864814 ], [ -96.7575936, 32.9857861 ], [ -96.7576516, 32.9857863 ], [ -96.7576489, 32.9856352 ], [ -96.7581847, 32.9856386 ], [ -96.758377, 32.9857441 ] ] ] } },
{ "type": "Feature", "properties": { "element": "way", "id": 986770151, "amenity": "parking", "parking": "surface", "access": "private", "capacity": null, "surface": "concrete", "fee": null, "name": null, "operator": null, "operator:type": null, "supervised": null, "building": null, "building:levels": null, "height": null, "park_ride": null, "short_name": null, "addr:city": null, "addr:postcode": null, "addr:state": null, "addr:street": null, "addr:housenumber": null, "capacity:disabled": null, "maxstay": null, "orientation": null, "note": null }, "geometry": { "type": "Polygon", "coordinates": [ [ [ -96.7587772, 32.9853187 ], [ -96.7575755, 32.985316 ], [ -96.7575771, 32.9848105 ], [ -96.7587748, 32.9848132 ], [ -96.7587772, 32.9840384 ], [ -96.7588392, 32.9840385 ], [ -96.758835, 32.9852617 ], [ -96.7587774, 32.9852616 ], [ -96.7587772, 32.9853187 ] ] ] } },
{ "type": "Feature", "properties": { "element": "way", "id": 1033971681, "amenity": "parking", "parking": "surface", "access": "permissive", "capacity": null, "surface": "concrete", "fee": "no", "name": null, "operator": "Parking", "operator:type": "business", "supervised": null, "building": null, "building:levels": null, "height": null, "park_ride": null, "short_name": null, "addr:city": null, "addr:postcode": null, "addr:state": null, "addr:street": null, "addr:housenumber": null, "capacity:disabled": null, "maxstay": null, "orientation": null, "note": null }, "geometry": { "type": "Polygon", "coordinates": [ [ [ -96.7574712, 32.990748 ], [ -96.7567221, 32.9907414 ], [ -96.7566384, 32.9906707 ], [ -96.7566435, 32.9899941 ], [ -96.7568362, 32.9898932 ], [ -96.7575965, 32.9898955 ], [ -96.7577465, 32.9900189 ], [ -96.7577415, 32.990652 ], [ -96.7574712, 32.990748 ] ] ] } },
{ "type": "Feature", "properties": { "element": "way", "id": 1083680516, "amenity": "parking", "parking": "surface", "access": "private", "capacity": null, "surface": "concrete", "fee": null, "name": null, "operator": null, "operator:type": null, "supervised": null, "building": null, "building:levels": null, "height": null, "park_ride": null, "short_name": null, "addr:city": null, "addr:postcode": null, "addr:state": null, "addr:street": null, "addr:housenumber": null, "capacity:disabled": null, "maxstay": null, "orientation": null, "note": null }, "geometry": { "type": "Polygon", "coordinates": [ [ [ -96.7448166, 32.98605 ], [ -96.7447047, 32.9860484 ], [ -96.7447058, 32.9859899 ], [ -96.744707, 32.9859278 ], [ -96.7448189, 32.9859294 ], [ -96.7448166, 32.98605 ] ] ] } },
{ "type": "Feature", "properties": { "element": "way", "id": 1102734839, "amenity": "parking", "parking": "surface", "access": "private", "capacity": null, "surface": "unpaved", "fee": null, "name": null, "operator": null, "operator:type": null, "supervised": null, "building": null, "building:levels": null, "height": null, "park_ride": null, "short_name": null, "addr:city": null, "addr:postcode": null, "addr:state": null, "addr:street": null, "addr:housenumber": null, "capacity:disabled": null, "maxstay": null, "orientation": null, "note": null }, "geometry": { "type": "Polygon", "coordinates": [ [ [ -96.7541193, 32.9938633 ], [ -96.7540584, 32.9933886 ], [ -96.7539234, 32.9933704 ], [ -96.7532969, 32.993327 ], [ -96.7532818, 32.9940295 ], [ -96.7534261, 32.9940295 ], [ -96.7534885, 32.9940024 ], [ -96.7537361, 32.9940511 ], [ -96.7539126, 32.9940367 ], [ -96.7539966, 32.9939789 ], [ -96.7540644, 32.9939392 ], [ -96.7541193, 32.9938633 ] ] ] } },
{ "type": "Feature", "properties": { "element": "way", "id": 1106559037, "amenity": "parking", "parking": "surface", "access": null, "capacity": null, "surface": null, "fee": null, "name": null, "operator": null, "operator:type": null, "supervised": null, "building": null, "building:levels": null, "height": null, "park_ride": null, "short_name": null, "addr:city": null, "addr:postcode": null, "addr:state": null, "addr:street": null, "addr:housenumber": null, "capacity:disabled": null, "maxstay": null, "orientation": null, "note": null }, "geometry": { "type": "Polygon", "coordinates": [ [ [ -96.740308, 32.9820001 ], [ -96.7405115, 32.9820087 ], [ -96.7404797, 32.9825359 ], [ -96.7402763, 32.9825273 ], [ -96.740308, 32.9820001 ] ] ] } },
{ "type": "Feature", "properties": { "element": "way", "id": 1106674829, "amenity": "parking", "parking": "surface", "access": "yes", "capacity": null, "surface": null, "fee": null, "name": null, "operator": null, "operator:type": null, "supervised": null, "building": null, "building:levels": null, "height": null, "park_ride": null, "short_name": null, "addr:city": null, "addr:postcode": null, "addr:state": null, "addr:street": null, "addr:housenumber": null, "capacity:disabled": null, "maxstay": null, "orientation": null, "note": null }, "geometry": { "type": "Polygon", "coordinates": [ [ [ -96.7444527, 32.9787943 ], [ -96.7419225, 32.9787933 ], [ -96.7419226, 32.9786235 ], [ -96.7427859, 32.9786238 ], [ -96.742786, 32.978474 ], [ -96.7429458, 32.978474 ], [ -96.7429458, 32.9786287 ], [ -96.7436128, 32.9786288 ], [ -96.7436129, 32.9784399 ], [ -96.7437998, 32.9784399 ], [ -96.7437998, 32.9786817 ], [ -96.7442409, 32.9786818 ], [ -96.7442409, 32.9786365 ], [ -96.7444528, 32.9786366 ], [ -96.7444527, 32.9787943 ] ] ] } },
{ "type": "Feature", "properties": { "element": "way", "id": 1128102475, "amenity": "parking", "parking": "lane", "access": "permissive", "capacity": null, "surface": "concrete", "fee": null, "name": null, "operator": null, "operator:type": null, "supervised": null, "building": null, "building:levels": null, "height": null, "park_ride": null, "short_name": null, "addr:city": null, "addr:postcode": null, "addr:state": null, "addr:street": null, "addr:housenumber": null, "capacity:disabled": null, "maxstay": "2 hours", "orientation": null, "note": null }, "geometry": { "type": "Polygon", "coordinates": [ [ [ -96.7510379, 32.9943816 ], [ -96.7510539, 32.9943989 ], [ -96.7509581, 32.9945159 ], [ -96.7496734, 32.9945093 ], [ -96.7496577, 32.994493 ], [ -96.7497422, 32.9943804 ], [ -96.7510379, 32.9943816 ] ] ] } },
{ "type": "Feature", "properties": { "element": "way", "id": 1128102476, "amenity": "parking", "parking": "lane", "access": "permissive", "capacity": null, "surface": "concrete", "fee": null, "name": null, "operator": null, "operator:type": null, "supervised": null, "building": null, "building:levels": null, "height": null, "park_ride": null, "short_name": null, "addr:city": null, "addr:postcode": null, "addr:state": null, "addr:street": null, "addr:housenumber": null, "capacity:disabled": null, "maxstay": "2 hours", "orientation": null, "note": null }, "geometry": { "type": "Polygon", "coordinates": [ [ [ -96.7480501, 32.9945103 ], [ -96.7480275, 32.9944864 ], [ -96.7483224, 32.9943753 ], [ -96.7492145, 32.9943776 ], [ -96.7492269, 32.9943937 ], [ -96.7491346, 32.9945073 ], [ -96.7480501, 32.9945103 ] ] ] } },
{ "type": "Feature", "properties": { "element": "way", "id": 1128102477, "amenity": "parking", "parking": "lane", "access": "private", "capacity": null, "surface": "concrete", "fee": null, "name": null, "operator": null, "operator:type": null, "supervised": null, "building": null, "building:levels": null, "height": null, "park_ride": null, "short_name": null, "addr:city": null, "addr:postcode": null, "addr:state": null, "addr:street": null, "addr:housenumber": null, "capacity:disabled": null, "maxstay": null, "orientation": null, "note": null }, "geometry": { "type": "Polygon", "coordinates": [ [ [ -96.7476261, 32.9944852 ], [ -96.7476018, 32.994506 ], [ -96.7471622, 32.9945029 ], [ -96.746992, 32.9944636 ], [ -96.7468177, 32.9943729 ], [ -96.7468076, 32.9943402 ], [ -96.7470661, 32.9943615 ], [ -96.7470955, 32.9943476 ], [ -96.7471882, 32.994371 ], [ -96.7476012, 32.9943744 ], [ -96.7476286, 32.994389 ], [ -96.7476261, 32.9944852 ] ] ] } },
{ "type": "Feature", "properties": { "element": "way", "id": 1128102478, "amenity": "parking", "parking": "surface", "access": "permissive", "capacity": null, "surface": "concrete", "fee": null, "name": null, "operator": null, "operator:type": null, "supervised": null, "building": null, "building:levels": null, "height": null, "park_ride": null, "short_name": null, "addr:city": null, "addr:postcode": null, "addr:state": null, "addr:street": null, "addr:housenumber": null, "capacity:disabled": null, "maxstay": "2 hours", "orientation": null, "note": null }, "geometry": { "type": "Polygon", "coordinates": [ [ [ -96.7462367, 32.9949405 ], [ -96.7460799, 32.9948496 ], [ -96.746599, 32.9942198 ], [ -96.7466433, 32.9942455 ], [ -96.7466615, 32.9943465 ], [ -96.7467054, 32.994372 ], [ -96.7462367, 32.9949405 ] ] ] } },
{ "type": "Feature", "properties": { "element": "way", "id": 1201251756, "amenity": "parking", "parking": "surface", "access": "permit", "capacity": null, "surface": "asphalt", "fee": "no", "name": "Lot M South", "operator": "University of Texas at Dallas", "operator:type": "university", "supervised": "yes", "building": null, "building:levels": null, "height": null, "park_ride": null, "short_name": null, "addr:city": null, "addr:postcode": null, "addr:state": null, "addr:street": null, "addr:housenumber": null, "capacity:disabled": null, "maxstay": null, "orientation": null, "note": null }, "geometry": { "type": "Polygon", "coordinates": [ [ [ -96.7471136, 32.9812963 ], [ -96.7462556, 32.9825613 ], [ -96.7466274, 32.9826986 ], [ -96.7469605, 32.9822075 ], [ -96.7472179, 32.9823012 ], [ -96.7473703, 32.9823034 ], [ -96.7473684, 32.981429 ], [ -96.7471136, 32.9812963 ] ] ] } },
{ "type": "Feature", "properties": { "element": "way", "id": 1209960522, "amenity": "parking", "parking": "surface", "access": "private", "capacity": "3", "surface": null, "fee": null, "name": null, "operator": null, "operator:type": null, "supervised": null, "building": null, "building:levels": null, "height": null, "park_ride": null, "short_name": null, "addr:city": null, "addr:postcode": null, "addr:state": null, "addr:street": null, "addr:housenumber": null, "capacity:disabled": null, "maxstay": null, "orientation": null, "note": null }, "geometry": { "type": "Polygon", "coordinates": [ [ [ -96.7489438, 32.989626 ], [ -96.7489446, 32.9895797 ], [ -96.748899, 32.9895791 ], [ -96.7488562, 32.9895786 ], [ -96.7488554, 32.9896249 ], [ -96.7489438, 32.989626 ] ] ] } },
{ "type": "Feature", "properties": { "element": "way", "id": 1210672436, "amenity": "parking", "parking": "surface", "access": "permit", "capacity": null, "surface": "concrete", "fee": "no", "name": "SPN Lot", "operator": "University of Texas at Dallas", "operator:type": "university", "supervised": "yes", "building": null, "building:levels": null, "height": null, "park_ride": null, "short_name": null, "addr:city": null, "addr:postcode": null, "addr:state": null, "addr:street": null, "addr:housenumber": null, "capacity:disabled": null, "maxstay": null, "orientation": null, "note": null }, "geometry": { "type": "Polygon", "coordinates": [ [ [ -96.7535853, 32.9947773 ], [ -96.7535862, 32.9946246 ], [ -96.7532558, 32.9946202 ], [ -96.7532565, 32.9947766 ], [ -96.7535853, 32.9947773 ] ] ] } },
{ "type": "Feature", "properties": { "element": "way", "id": 1210935699, "amenity": "parking", "parking": "surface", "access": "permissive", "capacity": null, "surface": "concrete", "fee": "no", "name": null, "operator": "Parking", "operator:type": "business", "supervised": null, "building": null, "building:levels": null, "height": null, "park_ride": null, "short_name": null, "addr:city": null, "addr:postcode": null, "addr:state": null, "addr:street": null, "addr:housenumber": null, "capacity:disabled": null, "maxstay": null, "orientation": null, "note": null }, "geometry": { "type": "Polygon", "coordinates": [ [ [ -96.7577078, 32.9898981 ], [ -96.7577089, 32.9899459 ], [ -96.7577599, 32.9900044 ], [ -96.7577612, 32.9900529 ], [ -96.7583009, 32.9900542 ], [ -96.7584351, 32.9901821 ], [ -96.7587241, 32.9901824 ], [ -96.7587832, 32.9902254 ], [ -96.7588376, 32.9902245 ], [ -96.7588377, 32.9899398 ], [ -96.7587234, 32.9899018 ], [ -96.7577078, 32.9898981 ] ] ] } },
{ "type": "Feature", "properties": { "element": "way", "id": 1210937678, "amenity": "parking", "parking": "surface", "access": "permit", "capacity": null, "surface": "concrete", "fee": "no", "name": "Lot W", "operator": "University of Texas at Dallas", "operator:type": "university", "supervised": "yes", "building": null, "building:levels": null, "height": null, "park_ride": null, "short_name": null, "addr:city": null, "addr:postcode": null, "addr:state": null, "addr:street": null, "addr:housenumber": null, "capacity:disabled": null, "maxstay": null, "orientation": null, "note": null }, "geometry": { "type": "Polygon", "coordinates": [ [ [ -96.7583808, 32.9924015 ], [ -96.7583782, 32.9922393 ], [ -96.7580281, 32.9922385 ], [ -96.7580013, 32.9922385 ], [ -96.7580036, 32.9921276 ], [ -96.7578657, 32.9921266 ], [ -96.7578663, 32.9921928 ], [ -96.7578667, 32.9922892 ], [ -96.7570878, 32.9922836 ], [ -96.7570886, 32.9922315 ], [ -96.7568442, 32.9922311 ], [ -96.7567966, 32.9921977 ], [ -96.7567966, 32.9917982 ], [ -96.756848, 32.991762 ], [ -96.7583675, 32.9917708 ], [ -96.7583685, 32.9916066 ], [ -96.7566638, 32.9915948 ], [ -96.7566572, 32.9922909 ], [ -96.756738, 32.9923412 ], [ -96.7568177, 32.9923961 ], [ -96.7583808, 32.9924015 ] ] ] } },
{ "type": "Feature", "properties": { "element": "way", "id": 1210937680, "amenity": "parking", "parking": "surface", "access": "permit", "capacity": null, "surface": "concrete", "fee": "no", "name": "Lot T Overflow", "operator": "University of Texas at Dallas", "operator:type": "university", "supervised": "yes", "building": null, "building:levels": null, "height": null, "park_ride": null, "short_name": null, "addr:city": null, "addr:postcode": null, "addr:state": null, "addr:street": null, "addr:housenumber": null, "capacity:disabled": null, "maxstay": null, "orientation": null, "note": null }, "geometry": { "type": "Polygon", "coordinates": [ [ [ -96.7560311, 32.9916289 ], [ -96.7560322, 32.9915458 ], [ -96.7560385, 32.9910801 ], [ -96.7558405, 32.9910804 ], [ -96.7558347, 32.9916085 ], [ -96.7558346, 32.991618 ], [ -96.7558345, 32.9916285 ], [ -96.7559051, 32.9916291 ], [ -96.7560311, 32.9916289 ] ] ] } },
{ "type": "Feature", "properties": { "element": "way", "id": 1210954286, "amenity": "parking", "parking": "surface", "access": "permit", "capacity": null, "surface": "concrete", "fee": "no", "name": "Lot A", "operator": "University of Texas at Dallas", "operator:type": "university", "supervised": "yes", "building": null, "building:levels": null, "height": null, "park_ride": null, "short_name": null, "addr:city": null, "addr:postcode": null, "addr:state": null, "addr:street": null, "addr:housenumber": null, "capacity:disabled": null, "maxstay": null, "orientation": null, "note": null }, "geometry": { "type": "Polygon", "coordinates": [ [ [ -96.746271, 32.9898502 ], [ -96.7462253, 32.9897912 ], [ -96.7462418, 32.9897701 ], [ -96.7462507, 32.9897452 ], [ -96.7462452, 32.9897318 ], [ -96.7462375, 32.989724 ], [ -96.7462102, 32.9897682 ], [ -96.7459379, 32.9894364 ], [ -96.7459132, 32.9893867 ], [ -96.7459066, 32.989338 ], [ -96.7459182, 32.9892895 ], [ -96.7459479, 32.9892441 ], [ -96.7459403, 32.9892345 ], [ -96.7463668, 32.9889847 ], [ -96.7464155, 32.9889719 ], [ -96.7464709, 32.9889753 ], [ -96.746518, 32.9889976 ], [ -96.7465471, 32.9890169 ], [ -96.7468626, 32.9894094 ], [ -96.7468682, 32.9894375 ], [ -96.7468657, 32.9894669 ], [ -96.746766, 32.9899385 ], [ -96.7467453, 32.9899879 ], [ -96.7467146, 32.9900248 ], [ -96.7466746, 32.9900554 ], [ -96.7466261, 32.9900754 ], [ -96.746578, 32.9900846 ], [ -96.7465264, 32.9900777 ], [ -96.7464779, 32.9900612 ], [ -96.7464419, 32.9900388 ], [ -96.7463972, 32.9900015 ], [ -96.7463132, 32.9898951 ], [ -96.7463367, 32.9898566 ], [ -96.7463357, 32.9898496 ], [ -96.7463205, 32.9898463 ], [ -96.7462908, 32.9898479 ], [ -96.746271, 32.9898502 ] ] ] } },
{ "type": "Feature", "properties": { "element": "way", "id": 1210963904, "amenity": "parking", "parking": "surface", "access": "permit", "capacity": null, "surface": "concrete", "fee": "no", "name": "Lot B", "operator": "University of Texas at Dallas", "operator:type": "university", "supervised": "yes", "building": null, "building:levels": null, "height": null, "park_ride": null, "short_name": null, "addr:city": null, "addr:postcode": null, "addr:state": null, "addr:street": null, "addr:housenumber": null, "capacity:disabled": null, "maxstay": null, "orientation": null, "note": null }, "geometry": { "type": "Polygon", "coordinates": [ [ [ -96.745642, 32.9888912 ], [ -96.7456647, 32.9888847 ], [ -96.7456899, 32.9888808 ], [ -96.7457136, 32.9888881 ], [ -96.7457316, 32.9889031 ], [ -96.7457041, 32.9889542 ], [ -96.7457934, 32.9890598 ], [ -96.7458163, 32.9890811 ], [ -96.7458528, 32.989104 ], [ -96.7458881, 32.9891162 ], [ -96.7459297, 32.9891243 ], [ -96.7459753, 32.9891225 ], [ -96.7460267, 32.9891138 ], [ -96.7464288, 32.9888875 ], [ -96.7464568, 32.9888646 ], [ -96.7464731, 32.9888434 ], [ -96.7464877, 32.9888231 ], [ -96.7464962, 32.9887964 ], [ -96.7464925, 32.9887703 ], [ -96.7464835, 32.9887447 ], [ -96.7464668, 32.9887232 ], [ -96.7460399, 32.988203 ], [ -96.7460002, 32.9881785 ], [ -96.7459433, 32.9881678 ], [ -96.745884, 32.9881806 ], [ -96.7457613, 32.9882136 ], [ -96.7455002, 32.9883377 ], [ -96.7454284, 32.9883846 ], [ -96.7453897, 32.9884494 ], [ -96.7453771, 32.9884815 ], [ -96.7453727, 32.9884944 ], [ -96.7453719, 32.9885076 ], [ -96.7453789, 32.9885419 ], [ -96.7453902, 32.9885731 ], [ -96.7455601, 32.9887751 ], [ -96.7455836, 32.9887319 ], [ -96.7455932, 32.9887299 ], [ -96.7456233, 32.9887707 ], [ -96.745623, 32.9887915 ], [ -96.7456124, 32.988811 ], [ -96.7455918, 32.9888316 ], [ -96.745642, 32.9888912 ] ] ] } },
{ "type": "Feature", "properties": { "element": "way", "id": 1210963906, "amenity": "parking", "parking": "surface", "access": "permit", "capacity": null, "surface": "asphalt", "fee": "no", "name": "Lot C", "operator": "University of Texas at Dallas", "operator:type": "university", "supervised": "yes", "building": null, "building:levels": null, "height": null, "park_ride": null, "short_name": null, "addr:city": null, "addr:postcode": null, "addr:state": null, "addr:street": null, "addr:housenumber": null, "capacity:disabled": null, "maxstay": null, "orientation": null, "note": null }, "geometry": { "type": "Polygon", "coordinates": [ [ [ -96.7444955, 32.9877448 ], [ -96.7444383, 32.9876847 ], [ -96.7444539, 32.9876716 ], [ -96.7444659, 32.9876513 ], [ -96.7444628, 32.9876212 ], [ -96.7444451, 32.9875986 ], [ -96.7444053, 32.9876357 ], [ -96.7443433, 32.9875671 ], [ -96.7443212, 32.9875236 ], [ -96.744316, 32.9874647 ], [ -96.7443269, 32.9873903 ], [ -96.7443514, 32.9873076 ], [ -96.7453824, 32.9873151 ], [ -96.7454157, 32.9873241 ], [ -96.7454515, 32.9873419 ], [ -96.7454826, 32.9873696 ], [ -96.7455044, 32.9873966 ], [ -96.7455178, 32.9874302 ], [ -96.7455113, 32.9876453 ], [ -96.7455049, 32.9876707 ], [ -96.7454908, 32.9876956 ], [ -96.7454644, 32.9877353 ], [ -96.7454331, 32.9877784 ], [ -96.7454039, 32.9878079 ], [ -96.7453691, 32.987836 ], [ -96.7453009, 32.9878803 ], [ -96.7452343, 32.9879118 ], [ -96.7451084, 32.9879577 ], [ -96.7450349, 32.9879897 ], [ -96.7449904, 32.9880173 ], [ -96.7449515, 32.988029 ], [ -96.7449104, 32.9880356 ], [ -96.7448566, 32.9880318 ], [ -96.7448017, 32.9880153 ], [ -96.7447496, 32.9879821 ], [ -96.7446799, 32.9879156 ], [ -96.7445645, 32.9877851 ], [ -96.7445902, 32.9877427 ], [ -96.7445785, 32.9877349 ], [ -96.7445649, 32.9877282 ], [ -96.7445387, 32.9877244 ], [ -96.7445103, 32.9877346 ], [ -96.7444955, 32.9877448 ] ] ] } },
{ "type": "Feature", "properties": { "element": "way", "id": 1212192862, "amenity": "parking", "parking": "surface", "access": "private", "capacity": "2", "surface": "concrete", "fee": "no", "name": null, "operator": null, "operator:type": null, "supervised": null, "building": null, "building:levels": null, "height": null, "park_ride": null, "short_name": null, "addr:city": null, "addr:postcode": null, "addr:state": null, "addr:street": null, "addr:housenumber": null, "capacity:disabled": "0", "maxstay": null, "orientation": null, "note": null }, "geometry": { "type": "Polygon", "coordinates": [ [ [ -96.7498631, 32.9883569 ], [ -96.7497916, 32.9883567 ], [ -96.7497917, 32.9883262 ], [ -96.7497917, 32.9882995 ], [ -96.7498628, 32.9882988 ], [ -96.7498631, 32.9883569 ] ] ] } },
{ "type": "Feature", "properties": { "element": "way", "id": 1308958190, "amenity": "parking", "parking": "street_side", "access": null, "capacity": "6", "surface": "concrete", "fee": "no", "name": null, "operator": null, "operator:type": null, "supervised": null, "building": null, "building:levels": null, "height": null, "park_ride": null, "short_name": null, "addr:city": null, "addr:postcode": null, "addr:state": null, "addr:street": null, "addr:housenumber": null, "capacity:disabled": null, "maxstay": "20 minutes", "orientation": "parallel", "note": null }, "geometry": { "type": "Polygon", "coordinates": [ [ [ -96.7550524, 32.9813011 ], [ -96.7546216, 32.9813047 ], [ -96.7546213, 32.9812814 ], [ -96.7550524, 32.981279 ], [ -96.7550524, 32.9813011 ] ] ] } },
{ "type": "Feature", "properties": { "element": "way", "id": 1308958191, "amenity": "parking", "parking": "street_side", "access": null, "capacity": "7", "surface": "concrete", "fee": null, "name": null, "operator": null, "operator:type": null, "supervised": null, "building": null, "building:levels": null, "height": null, "park_ride": null, "short_name": null, "addr:city": null, "addr:postcode": null, "addr:state": null, "addr:street": null, "addr:housenumber": null, "capacity:disabled": null, "maxstay": "20 minutes", "orientation": "parallel", "note": null }, "geometry": { "type": "Polygon", "coordinates": [ [ [ -96.7550534, 32.9811566 ], [ -96.7550532, 32.9811777 ], [ -96.7545716, 32.981182 ], [ -96.7545717, 32.981175 ], [ -96.7546219, 32.9811597 ], [ -96.7550534, 32.9811566 ] ] ] } },
{ "type": "Feature", "properties": { "element": "way", "id": 1350335499, "amenity": "parking", "parking": "surface", "access": "permit", "capacity": null, "surface": null, "fee": "no", "name": "Lot M Southeast", "operator": "University of Texas at Dallas", "operator:type": "university", "supervised": "yes", "building": null, "building:levels": null, "height": null, "park_ride": null, "short_name": null, "addr:city": null, "addr:postcode": null, "addr:state": null, "addr:street": null, "addr:housenumber": null, "capacity:disabled": null, "maxstay": null, "orientation": null, "note": null }, "geometry": { "type": "Polygon", "coordinates": [ [ [ -96.7459663, 32.9825643 ], [ -96.7468474, 32.9812825 ], [ -96.7468045, 32.981262 ], [ -96.7468905, 32.981122 ], [ -96.7467841, 32.9810827 ], [ -96.7466815, 32.9810812 ], [ -96.7465605, 32.9811147 ], [ -96.7464613, 32.9811998 ], [ -96.7463812, 32.9813127 ], [ -96.7462389, 32.9815135 ], [ -96.746007, 32.9813982 ], [ -96.7463815, 32.9808527 ], [ -96.7470813, 32.9808606 ], [ -96.7472729, 32.9805745 ], [ -96.7472751, 32.9805358 ], [ -96.7459883, 32.9805181 ], [ -96.7459828, 32.9807702 ], [ -96.7458014, 32.981044 ], [ -96.7459584, 32.9811259 ], [ -96.7458316, 32.9813207 ], [ -96.7458305, 32.9814482 ], [ -96.7459358, 32.9814986 ], [ -96.7459653, 32.9814556 ], [ -96.7462006, 32.981576 ], [ -96.7461438, 32.981658 ], [ -96.745818, 32.9821285 ], [ -96.7456406, 32.9823846 ], [ -96.7456578, 32.9824688 ], [ -96.7458895, 32.9825822 ], [ -96.7459663, 32.9825643 ] ] ] } },
{ "type": "Feature", "properties": { "element": "way", "id": 1426797020, "amenity": "parking", "parking": "surface", "access": null, "capacity": null, "surface": "concrete", "fee": null, "name": null, "operator": null, "operator:type": null, "supervised": null, "building": null, "building:levels": null, "height": null, "park_ride": null, "short_name": null, "addr:city": null, "addr:postcode": null, "addr:state": null, "addr:street": null, "addr:housenumber": null, "capacity:disabled": null, "maxstay": null, "orientation": null, "note": null }, "geometry": { "type": "Polygon", "coordinates": [ [ [ -96.7587134, 32.9898378 ], [ -96.7587155, 32.9897648 ], [ -96.7588138, 32.9897656 ], [ -96.7588142, 32.9891778 ], [ -96.7587167, 32.9891785 ], [ -96.7587179, 32.9891271 ], [ -96.7577412, 32.9891248 ], [ -96.7577403, 32.9891807 ], [ -96.7575787, 32.9891806 ], [ -96.7575813, 32.9891258 ], [ -96.7568511, 32.9891238 ], [ -96.7568531, 32.9891832 ], [ -96.7566299, 32.9893136 ], [ -96.7566311, 32.9897818 ], [ -96.7567162, 32.9897817 ], [ -96.7567205, 32.9898389 ], [ -96.7587134, 32.9898378 ] ] ] } },
{ "type": "Feature", "properties": { "element": "way", "id": 1482479179, "amenity": "parking", "parking": "surface", "access": "private", "capacity": null, "surface": "unpaved", "fee": null, "name": null, "operator": null, "operator:type": null, "supervised": null, "building": null, "building:levels": null, "height": null, "park_ride": null, "short_name": null, "addr:city": null, "addr:postcode": null, "addr:state": null, "addr:street": null, "addr:housenumber": null, "capacity:disabled": null, "maxstay": null, "orientation": null, "note": "for construction traffic" }, "geometry": { "type": "Polygon", "coordinates": [ [ [ -96.7429689, 32.9914279 ], [ -96.7449296, 32.9936169 ], [ -96.7454995, 32.9932577 ], [ -96.7453478, 32.9930883 ], [ -96.7443012, 32.9919199 ], [ -96.7435389, 32.9910687 ], [ -96.7429689, 32.9914279 ] ] ] } }
]
}
